{
  "last_updated": "2026-01-10T06:00:02.096942",
  "satellites": {
    "98592": {
      "name": "DUTHSat-2",
      "norad_id": "98592",
      "tle": "1 64530U 25135C   26009.57943994  .00010588  00000-0  46192-3 0  9998\n2 64530  97.4487 126.2432 0005627  34.3953 325.7646 15.22323516 30765",
      "epoch": "2026-01-09T13:54:23.610816",
      "fetched_at": "2026-01-10T06:00:02.229611",
      "source": "satnogs"
    },
    "98530": {
      "name": "LAMARR",
      "norad_id": "98530",
      "tle": "1 66673U 25276H   26009.17876103 -.00033426  00000-0 -16585-2 0  9997\n2 66673  97.4279  85.4166 0006885 190.8668 169.2419 15.17790920  6282",
      "epoch": "2026-01-09T04:17:24.952992",
      "fetched_at": "2026-01-10T06:00:02.288469",
      "source": "satnogs"
    },
    "98529": {
      "name": "DIRAC",
      "norad_id": "98529",
      "tle": "1 66681U 25276R   26009.17073495  .00015645  00000-0  76648-3 0  9997\n2 66681  97.4305  85.4126 0005402 207.7462 152.3484 15.18225061  6286",
      "epoch": "2026-01-09T04:05:51.499680",
      "fetched_at": "2026-01-10T06:00:02.339725",
      "source": "satnogs"
    },
    "98518": {
      "name": "MICE-1",
      "norad_id": "98518",
      "tle": "1 66684U 25276U   26009.63593364  .00004260  00000-0  21496-3 0  9995\n2 66684  97.4449  85.9349 0005813 172.6700 187.4620 15.17640015  6359",
      "epoch": "2026-01-09T15:15:44.666496",
      "fetched_at": "2026-01-10T06:00:02.384704",
      "source": "satnogs"
    }
  },
  "fetch_log": [
    {
      "norad_id": "98592",
      "name": "DUTHSat-2",
      "status": "success",
      "source": "satnogs",
      "timestamp": "2026-01-10T06:00:02.229614"
    },
    {
      "norad_id": "98530",
      "name": "LAMARR",
      "status": "success",
      "source": "satnogs",
      "timestamp": "2026-01-10T06:00:02.288472"
    },
    {
      "norad_id": "98529",
      "name": "DIRAC",
      "status": "success",
      "source": "satnogs",
      "timestamp": "2026-01-10T06:00:02.339728"
    },
    {
      "norad_id": "98518",
      "name": "MICE-1",
      "status": "success",
      "source": "satnogs",
      "timestamp": "2026-01-10T06:00:02.384706"
    }
  ]
}